NORAD_CAT_ID,OBJECT_NAME,OBJECT_TYPE,EPOCH,MEAN_MOTION,ECCENTRICITY,INCLINATION,RA_OF_ASC_NODE,ARG_OF_PERICENTER,MEAN_ANOMALY,BSTAR,MEAN_MOTION_DOT,MEAN_MOTION_DDOT,TLE_LINE0,TLE_LINE1,TLE_LINE2,SEMIMAJOR_AXIS,PERIOD,APOGEE,PERIGEE,DECAYED
53923.0,STARLINK-5004,PAYLOAD,2023-11-01 22:17:59,15.08843859,0.0001422,53.2157,209.0749,87.0624,273.0531,0.0001609,2.274e-05,0.0,0 STARLINK-5004,1 53923U 22119AP  23305.92916021  .00002274  00000-0  16090-3 0  9994,2 53923  53.2157 209.0749 0001422  87.0624 273.0531 15.08843859 62183,6917.869,95.437,540.717,538.75,0.0
53923.0,STARLINK-5004,PAYLOAD,2023-11-02 11:01:04,15.08842424,0.0001482,53.2171,206.6957,78.1775,281.9384,5.8088e-05,6.37e-06,0.0,0 STARLINK-5004,1 53923U 22119AP  23306.45907956  .00000637  00000-0  58088-4 0  9995,2 53923  53.2171 206.6957 0001482  78.1775 281.9384 15.08842424 61840,6917.873,95.437,540.763,538.713,0.0
53923.0,STARLINK-5004,PAYLOAD,2023-11-02 22:08:46,15.08840434,0.0001691,53.2175,204.6122,84.7491,275.3694,7.7001e-05,9.38e-06,0.0,0 STARLINK-5004,1 53923U 22119AP  23306.92276148  .00000938  00000-0  77001-4 0  9999,2 53923  53.2175 204.6122 0001691  84.7491 275.3694 15.08840434 62331,6917.879,95.438,540.914,538.574,0.0
53923.0,STARLINK-5004,PAYLOAD,2023-11-03 10:51:51,15.08841043,0.0001771,53.2177,202.2321,93.136,266.9835,5.7355e-05,6.25e-06,0.0,0 STARLINK-5004,1 53923U 22119AP  23307.45268092  .00000625  00000-0  57355-4 0  9990,2 53923  53.2177 202.2321 0001771  93.1360 266.9835 15.08841043 62415,6917.877,95.437,540.967,538.517,0.0
53923.0,STARLINK-5004,PAYLOAD,2023-11-03 21:59:33,15.08840249,0.0001599,53.2168,200.1551,81.9709,278.1464,0.00010949,1.455e-05,0.0,0 STARLINK-5004,1 53923U 22119AP  23307.91636325  .00001455  00000-0  10949-3 0  9998,2 53923  53.2168 200.1551 0001599  81.9709 278.1464 15.08840249 62484,6917.88,95.438,540.851,538.638,0.0
53923.0,STARLINK-5004,PAYLOAD,2023-11-04 02:45:42,15.08846836,0.0001713,53.2174,199.2594,100.1334,259.9852,0.00023097,3.39e-05,0.0,0 STARLINK-5004,1 53923U 22119AP  23308.11507986  .00003390  00000-0  23097-3 0  9999,2 53923  53.2174 199.2594 0001713 100.1334 259.9852 15.08846836 62095,6917.859,95.437,540.91,538.539,0.0
53923.0,STARLINK-5004,PAYLOAD,2023-11-04 20:14:57,15.08844667,0.0001583,53.2163,195.9853,101.0261,259.0909,0.00022547,3.303e-05,0.0,0 STARLINK-5004,1 53923U 22119AP  23308.84372114  .00003303  00000-0  22547-3 0  9995,2 53923  53.2163 195.9853 0001583 101.0261 259.0909 15.08844667 62205,6917.866,95.437,540.826,538.636,0.0
53923.0,STARLINK-5004,PAYLOAD,2023-11-04 21:50:20,15.08845778,0.0001594,53.2164,195.6879,101.1576,258.9596,0.00023929,3.523e-05,0.0,0 STARLINK-5004,1 53923U 22119AP  23308.90996063  .00003523  00000-0  23929-3 0  9996,2 53923  53.2164 195.6879 0001594 101.1576 258.9596 15.08845778 62634,6917.863,95.437,540.83,538.625,0.0
53923.0,STARLINK-5004,PAYLOAD,2023-11-05 08:58:02,15.08854946,0.0001296,53.2157,193.6076,85.3218,274.7922,0.00050848,7.817e-05,0.0,0 STARLINK-5004,1 53923U 22119AP  23309.37363746  .00007817  00000-0  50848-3 0  9994,2 53923  53.2157 193.6076 0001296  85.3218 274.7922 15.08854946 62702,6917.835,95.437,540.596,538.803,0.0
53923.0,STARLINK-5004,PAYLOAD,2023-11-05 23:16:29,15.08891045,0.0001281,53.216,190.9316,89.732,270.3819,0.0013021,0.00020525,0.0,0 STARLINK-5004,1 53923U 22119AP  23309.96978162  .00020525  00000-0  13021-2 0  9995,2 53923  53.2160 190.9316 0001281  89.7320 270.3819 15.08891045 62796,6917.724,95.434,540.476,538.703,0.0
53923.0,STARLINK-5004,PAYLOAD,2023-11-06 08:48:47,15.08874996,0.0001411,53.2162,189.1484,82.1769,277.9383,0.00054737,8.442e-05,0.0,0 STARLINK-5004,1 53923U 22119AP  23310.36721647  .00008442  00000-0  54737-3 0  9999,2 53923  53.2162 189.1484 0001411  82.1769 277.9383 15.08874996 62439,6917.773,95.435,540.615,538.662,0.0
53923.0,STARLINK-5004,PAYLOAD,2023-11-06 19:56:30,15.08812158,0.0001199,53.2155,187.0657,59.5766,300.5345,-0.0010991,-0.00017724,0.0,0 STARLINK-5004,1 53923U 22119AP  23310.83091177 -.00017724  00000-0 -10991-2 0  9997,2 53923  53.2155 187.0657 0001199  59.5766 300.5345 15.08812158 62509,6917.965,95.439,540.66,539.001,0.0
53923.0,STARLINK-5004,PAYLOAD,2023-11-06 23:07:17,15.08798424,0.0001224,53.2156,186.4711,66.533,293.5791,-0.0011168,-0.00017997,0.0,0 STARLINK-5004,1 53923U 22119AP  23310.96340224 -.00017997  00000-0 -11168-2 0  9990,2 53923  53.2156 186.4711 0001224  66.5330 293.5791 15.08798424 62941,6918.007,95.44,540.719,539.026,0.0
53923.0,STARLINK-5004,PAYLOAD,2023-11-07 00:42:41,15.08794725,0.0001135,53.2153,186.1743,70.8101,289.3014,-0.0011338,-0.00018264,0.0,0 STARLINK-5004,1 53923U 22119AP  23311.02964500 -.00018264  00000-0 -11338-2 0  9994,2 53923  53.2153 186.1743 0001135  70.8101 289.3014 15.08794725 62531,6918.019,95.44,540.669,539.099,0.0
53923.0,STARLINK-5004,PAYLOAD,2023-11-07 08:39:37,15.08798694,0.0001252,53.2159,184.6896,89.0633,271.0502,-0.00070348,-0.00011453,0.0,0 STARLINK-5004,1 53923U 22119AP  23311.36085316 -.00011453  00000-0 -70348-3 0  9990,2 53923  53.2159 184.6896 0001252  89.0633 271.0502 15.08798694 62585,6918.007,95.44,540.738,539.006,0.0
53923.0,STARLINK-5004,PAYLOAD,2023-11-08 00:33:30,15.08813505,0.0001329,53.2156,181.7147,97.6318,262.4825,0.00019124,2.755e-05,0.0,0 STARLINK-5004,1 53923U 22119AP  23312.02326578  .00002755  00000-0  19124-3 0  9990,2 53923  53.2156 181.7147 0001329  97.6318 262.4825 15.08813505 62681,6917.961,95.439,540.746,538.907,0.0
53923.0,STARLINK-5004,PAYLOAD,2023-11-08 19:38:08,15.08832329,0.0001232,53.2158,178.1484,50.0943,310.0157,0.00068472,0.00010624,0.0,0 STARLINK-5004,1 53923U 22119AP  23312.81815126  .00010624  00000-0  68472-3 0  9993,2 53923  53.2158 178.1484 0001232  50.0943 310.0157 15.08832329 62804,6917.904,95.438,540.621,538.917,0.0
53923.0,STARLINK-5004,PAYLOAD,2023-11-08 21:13:31,15.08831846,0.0001782,53.2158,177.8502,56.1682,303.948,0.0007835,0.00012201,0.0,0 STARLINK-5004,1 53923U 22119AP  23312.88439382  .00012201  00000-0  78350-3 0  9995,2 53923  53.2158 177.8502 0001782  56.1682 303.9480 15.08831846 63239,6917.905,95.438,541.003,538.538,0.0
53923.0,STARLINK-5004,PAYLOAD,2023-11-08 22:48:54,15.08844002,0.0001302,53.2158,177.5528,87.2866,272.8276,0.00094348,0.00014761,0.0,0 STARLINK-5004,1 53923U 22119AP  23312.95062831  .00014761  00000-0  94348-3 0  9992,2 53923  53.2158 177.5528 0001302  87.2866 272.8276 15.08844002 62820,6917.868,95.437,540.634,538.832,0.0
53923.0,STARLINK-5004,PAYLOAD,2023-11-09 19:28:54,15.08852401,0.0001406,53.2154,173.693,82.02,278.0951,0.00037519,5.69e-05,0.0,0 STARLINK-5004,1 53923U 22119AP  23313.81174151  .00005690  00000-0  37519-3 0  9995,2 53923  53.2154 173.6930 0001406  82.0200 278.0951 15.08852401 62954,6917.842,95.437,540.68,538.735,0.0
53923.0,STARLINK-5004,PAYLOAD,2023-11-09 21:04:17,15.08853731,0.0001336,53.2157,173.3893,92.5823,267.5322,0.00034672,5.236e-05,0.0,0 STARLINK-5004,1 53923U 22119AP  23313.87797846  .00005236  00000-0  34672-3 0  9996,2 53923  53.2157 173.3893 0001336  92.5823 267.5322 15.08853731 63381,6917.838,95.437,540.628,538.779,0.0
53923.0,STARLINK-5004,PAYLOAD,2023-11-10 08:11:59,15.08850432,0.000164,53.2158,171.3053,100.0516,260.0662,0.00018205,2.611e-05,0.0,0 STARLINK-5004,1 53923U 22119AP  23314.34165549  .00002611  00000-0  18205-3 0  9996,2 53923  53.2158 171.3053 0001640 100.0516 260.0662 15.08850432 63458,6917.849,95.437,540.848,538.579,0.0
53923.0,STARLINK-5004,PAYLOAD,2023-11-10 19:19:40,15.08856929,0.0001534,53.2156,169.2225,103.0411,257.0752,1.188e-06,-2.69e-06,0.0,0 STARLINK-5004,1 53923U 22119AP  23314.80532815 -.00000269  00000-0  11880-5 0  9993,2 53923  53.2156 169.2225 0001534 103.0411 257.0752 15.08856929 63523,6917.829,95.436,540.755,538.632,0.0
53923.0,STARLINK-5004,PAYLOAD,2023-11-10 20:55:03,15.08853583,0.0001629,53.2165,168.9259,90.9469,269.171,-1.0929e-06,-3.05e-06,0.0,0 STARLINK-5004,1 53923U 22119AP  23314.87157039 -.00000305  00000-0 -10929-5 0  9996,2 53923  53.2165 168.9259 0001629  90.9469 269.1710 15.08853583 63114,6917.839,95.437,540.831,538.577,0.0
53923.0,STARLINK-5004,PAYLOAD,2023-11-11 19:10:28,15.08832156,0.0001441,53.2164,164.7632,105.4787,254.6365,0.00016349,2.314e-05,0.0,0 STARLINK-5004,1 53923U 22119AP  23315.79893532  .00002314  00000-0  16349-3 0  9993,2 53923  53.2164 164.7632 0001441 105.4787 254.6365 15.08832156 63252,6917.904,95.438,540.766,538.772,0.0
53923.0,STARLINK-5004,PAYLOAD,2023-11-11 20:45:50,15.08846635,0.0001309,53.2162,164.4677,93.1476,266.9666,-7.4501e-05,-1.474e-05,0.0,0 STARLINK-5004,1 53923U 22119AP  23315.86517262 -.00001474  00000-0 -74501-4 0  9997,2 53923  53.2162 164.4677 0001309  93.1476 266.9666 15.08846635 63681,6917.86,95.437,540.631,538.82,0.0
53923.0,STARLINK-5004,PAYLOAD,2023-11-11 23:56:37,15.08843274,0.0001287,53.2162,163.8729,95.7428,264.3711,-3.0352e-05,-7.71e-06,0.0,0 STARLINK-5004,1 53923U 22119AP  23315.99765265 -.00000771  00000-0 -30352-4 0  9994,2 53923  53.2162 163.8729 0001287  95.7428 264.3711 15.08843274 63287,6917.87,95.437,540.626,538.845,0.0
53923.0,STARLINK-5004,PAYLOAD,2023-11-12 20:36:37,15.08843654,0.000136,53.2156,160.0093,90.92,269.1947,5.7992e-05,6.35e-06,0.0,0 STARLINK-5004,1 53923U 22119AP  23316.85876878  .00000635  00000-0  57992-4 0  9999,2 53923  53.2156 160.0093 0001360  90.9200 269.1947 15.08843654 63837,6917.869,95.437,540.675,538.793,0.0
53923.0,STARLINK-5004,PAYLOAD,2023-11-13 12:30:28,15.08843241,0.0001391,53.2164,157.0341,84.2178,275.8973,0.00010406,1.369e-05,0.0,0 STARLINK-5004,1 53923U 22119AP  23317.52116705  .00001369  00000-0  10406-3 0  9993,2 53923  53.2164 157.0341 0001391  84.2178 275.8973 15.08843241 63512,6917.87,95.437,540.698,538.773,0.0
53923.0,STARLINK-5004,PAYLOAD,2023-11-13 20:27:24,15.08841825,0.0001412,53.216,155.5476,85.6523,274.463,8.7209e-05,1.1e-05,0.0,0 STARLINK-5004,1 53923U 22119AP  23317.85236913  .00001100  00000-0  87209-4 0  9992,2 53923  53.2160 155.5476 0001412  85.6523 274.4630 15.08841825 63985,6917.875,95.437,540.717,538.763,0.0
